CCSDS_OMM_VERS = 2.0
CREATION_DATE  = 
ORIGINATOR     = 

OBJECT_NAME    = COSMOS 2600
OBJECT_ID      = 2026-023A
CENTER_NAME    = EARTH
REF_FRAME      = TEME
TIME_SYSTEM    = UTC
MEAN_ELEMENT_THEORY = SGP/SGP4

EPOCH          = 2026-02-24T13:35:21.816672
MEAN_MOTION    = 15.83635302
ECCENTRICITY   = .0001362
INCLINATION    = 96.6461
RA_OF_ASC_NODE = 131.6210
ARG_OF_PERICENTER = 49.8071
MEAN_ANOMALY   = 310.3320

EPHEMERIS_TYPE = 0
CLASSIFICATION_TYPE = U
NORAD_CAT_ID   = 67674
ELEMENT_SET_NO = 999
REV_AT_EPOCH   = 297
BSTAR          = .41379E-3
MEAN_MOTION_DOT = .91105E-3
MEAN_MOTION_DDOT = 0

CCSDS_OMM_VERS = 2.0
CREATION_DATE  = 
ORIGINATOR     = 

OBJECT_NAME    = 2026-023B
OBJECT_ID      = 2026-023B
CENTER_NAME    = EARTH
REF_FRAME      = TEME
TIME_SYSTEM    = UTC
MEAN_ELEMENT_THEORY = SGP/SGP4

EPOCH          = 2026-02-24T20:10:57.424224
MEAN_MOTION    = 15.22644526
ECCENTRICITY   = .0018581
INCLINATION    = 96.6378
RA_OF_ASC_NODE = 130.2782
ARG_OF_PERICENTER = 175.9166
MEAN_ANOMALY   = 184.2227

EPHEMERIS_TYPE = 0
CLASSIFICATION_TYPE = U
NORAD_CAT_ID   = 67675
ELEMENT_SET_NO = 999
REV_AT_EPOCH   = 290
BSTAR          = .41801E-3
MEAN_MOTION_DOT = .9717E-4
MEAN_MOTION_DDOT = 0

CCSDS_OMM_VERS = 2.0
CREATION_DATE  = 
ORIGINATOR     = 

OBJECT_NAME    = 2026-023C
OBJECT_ID      = 2026-023C
CENTER_NAME    = EARTH
REF_FRAME      = TEME
TIME_SYSTEM    = UTC
MEAN_ELEMENT_THEORY = SGP/SGP4

EPOCH          = 2026-02-24T20:09:45.663840
MEAN_MOTION    = 15.22730943
ECCENTRICITY   = .0019737
INCLINATION    = 96.6414
RA_OF_ASC_NODE = 130.2962
ARG_OF_PERICENTER = 166.1080
MEAN_ANOMALY   = 194.0706

EPHEMERIS_TYPE = 0
CLASSIFICATION_TYPE = U
NORAD_CAT_ID   = 67676
ELEMENT_SET_NO = 999
REV_AT_EPOCH   = 306
BSTAR          = .48883E-3
MEAN_MOTION_DOT = .11412E-3
MEAN_MOTION_DDOT = 0

CCSDS_OMM_VERS = 2.0
CREATION_DATE  = 
ORIGINATOR     = 

OBJECT_NAME    = 2026-023D
OBJECT_ID      = 2026-023D
CENTER_NAME    = EARTH
REF_FRAME      = TEME
TIME_SYSTEM    = UTC
MEAN_ELEMENT_THEORY = SGP/SGP4

EPOCH          = 2026-02-24T20:12:04.669344
MEAN_MOTION    = 15.22569372
ECCENTRICITY   = .0019878
INCLINATION    = 96.6444
RA_OF_ASC_NODE = 130.2825
ARG_OF_PERICENTER = 171.0618
MEAN_ANOMALY   = 189.0979

EPHEMERIS_TYPE = 0
CLASSIFICATION_TYPE = U
NORAD_CAT_ID   = 67677
ELEMENT_SET_NO = 999
REV_AT_EPOCH   = 289
BSTAR          = .4215E-3
MEAN_MOTION_DOT = .9784E-4
MEAN_MOTION_DDOT = 0

CCSDS_OMM_VERS = 2.0
CREATION_DATE  = 
ORIGINATOR     = 

OBJECT_NAME    = 2026-023E
OBJECT_ID      = 2026-023E
CENTER_NAME    = EARTH
REF_FRAME      = TEME
TIME_SYSTEM    = UTC
MEAN_ELEMENT_THEORY = SGP/SGP4

EPOCH          = 2026-02-24T20:10:14.179296
MEAN_MOTION    = 15.22709297
ECCENTRICITY   = .0019702
INCLINATION    = 96.6338
RA_OF_ASC_NODE = 130.2732
ARG_OF_PERICENTER = 170.5128
MEAN_ANOMALY   = 189.6487

EPHEMERIS_TYPE = 0
CLASSIFICATION_TYPE = U
NORAD_CAT_ID   = 67678
ELEMENT_SET_NO = 999
REV_AT_EPOCH   = 289
BSTAR          = .50425E-3
MEAN_MOTION_DOT = .11767E-3
MEAN_MOTION_DDOT = 0

CCSDS_OMM_VERS = 2.0
CREATION_DATE  = 
ORIGINATOR     = 

OBJECT_NAME    = 2026-023F
OBJECT_ID      = 2026-023F
CENTER_NAME    = EARTH
REF_FRAME      = TEME
TIME_SYSTEM    = UTC
MEAN_ELEMENT_THEORY = SGP/SGP4

EPOCH          = 2026-02-24T20:07:43.843296
MEAN_MOTION    = 15.22856556
ECCENTRICITY   = .0021608
INCLINATION    = 96.6345
RA_OF_ASC_NODE = 132.7719
ARG_OF_PERICENTER = 165.5262
MEAN_ANOMALY   = 194.6600

EPHEMERIS_TYPE = 0
CLASSIFICATION_TYPE = U
NORAD_CAT_ID   = 67679
ELEMENT_SET_NO = 999
REV_AT_EPOCH   = 288
BSTAR          = .58151E-3
MEAN_MOTION_DOT = .13656E-3
MEAN_MOTION_DDOT = 0

CCSDS_OMM_VERS = 2.0
CREATION_DATE  = 
ORIGINATOR     = 

OBJECT_NAME    = 2026-023G
OBJECT_ID      = 2026-023G
CENTER_NAME    = EARTH
REF_FRAME      = TEME
TIME_SYSTEM    = UTC
MEAN_ELEMENT_THEORY = SGP/SGP4

EPOCH          = 2026-02-24T20:08:25.181376
MEAN_MOTION    = 15.22809709
ECCENTRICITY   = .0023167
INCLINATION    = 96.6272
RA_OF_ASC_NODE = 132.7616
ARG_OF_PERICENTER = 162.0919
MEAN_ANOMALY   = 198.1141

EPHEMERIS_TYPE = 0
CLASSIFICATION_TYPE = U
NORAD_CAT_ID   = 67680
ELEMENT_SET_NO = 999
REV_AT_EPOCH   = 288
BSTAR          = .54248E-3
MEAN_MOTION_DOT = .12729E-3
MEAN_MOTION_DDOT = 0

CCSDS_OMM_VERS = 2.0
CREATION_DATE  = 
ORIGINATOR     = 

OBJECT_NAME    = 2026-023H
OBJECT_ID      = 2026-023H
CENTER_NAME    = EARTH
REF_FRAME      = TEME
TIME_SYSTEM    = UTC
MEAN_ELEMENT_THEORY = SGP/SGP4

EPOCH          = 2026-02-24T20:08:14.084160
MEAN_MOTION    = 15.22780459
ECCENTRICITY   = .0023214
INCLINATION    = 96.6417
RA_OF_ASC_NODE = 132.7782
ARG_OF_PERICENTER = 161.4347
MEAN_ANOMALY   = 198.7744

EPHEMERIS_TYPE = 0
CLASSIFICATION_TYPE = U
NORAD_CAT_ID   = 67681
ELEMENT_SET_NO = 999
REV_AT_EPOCH   = 288
BSTAR          = .43197E-3
MEAN_MOTION_DOT = .10112E-3
MEAN_MOTION_DDOT = 0

CCSDS_OMM_VERS = 2.0
CREATION_DATE  = 
ORIGINATOR     = 

OBJECT_NAME    = 2026-023J
OBJECT_ID      = 2026-023J
CENTER_NAME    = EARTH
REF_FRAME      = TEME
TIME_SYSTEM    = UTC
MEAN_ELEMENT_THEORY = SGP/SGP4

EPOCH          = 2026-02-24T20:07:15.330432
MEAN_MOTION    = 15.22872944
ECCENTRICITY   = .0023774
INCLINATION    = 96.6376
RA_OF_ASC_NODE = 132.7848
ARG_OF_PERICENTER = 158.9076
MEAN_ANOMALY   = 201.3149

EPHEMERIS_TYPE = 0
CLASSIFICATION_TYPE = U
NORAD_CAT_ID   = 67682
ELEMENT_SET_NO = 999
REV_AT_EPOCH   = 288
BSTAR          = .3474E-3
MEAN_MOTION_DOT = .8144E-4
MEAN_MOTION_DDOT = 0

CCSDS_OMM_VERS = 2.0
CREATION_DATE  = 
ORIGINATOR     = 

OBJECT_NAME    = ISS OBJECT XZ
OBJECT_ID      = 1998-067XZ
CENTER_NAME    = EARTH
REF_FRAME      = TEME
TIME_SYSTEM    = UTC
MEAN_ELEMENT_THEORY = SGP/SGP4

EPOCH          = 2026-02-24T15:36:03.413664
MEAN_MOTION    = 15.50703079
ECCENTRICITY   = .000992
INCLINATION    = 51.6307
RA_OF_ASC_NODE = 136.5843
ARG_OF_PERICENTER = 142.4717
MEAN_ANOMALY   = 217.6967

EPHEMERIS_TYPE = 0
CLASSIFICATION_TYPE = U
NORAD_CAT_ID   = 67683
ELEMENT_SET_NO = 999
REV_AT_EPOCH   = 276
BSTAR          = .57394E-3
MEAN_MOTION_DOT = .33321E-3
MEAN_MOTION_DDOT = 0

CCSDS_OMM_VERS = 2.0
CREATION_DATE  = 
ORIGINATOR     = 

OBJECT_NAME    = GXIBA-1
OBJECT_ID      = 1998-067YA
CENTER_NAME    = EARTH
REF_FRAME      = TEME
TIME_SYSTEM    = UTC
MEAN_ELEMENT_THEORY = SGP/SGP4

EPOCH          = 2026-02-24T12:14:55.459104
MEAN_MOTION    = 15.52162735
ECCENTRICITY   = .00114058
INCLINATION    = 51.6305
RA_OF_ASC_NODE = 137.1526
ARG_OF_PERICENTER = 133.9104
MEAN_ANOMALY   = 226.2829

EPHEMERIS_TYPE = 0
CLASSIFICATION_TYPE = U
NORAD_CAT_ID   = 67684
ELEMENT_SET_NO = 999
REV_AT_EPOCH   = 274
BSTAR          = .10731364E-2
MEAN_MOTION_DOT = .66405E-3
MEAN_MOTION_DDOT = 0

CCSDS_OMM_VERS = 2.0
CREATION_DATE  = 
ORIGINATOR     = 

OBJECT_NAME    = CORAL
OBJECT_ID      = 1998-067YB
CENTER_NAME    = EARTH
REF_FRAME      = TEME
TIME_SYSTEM    = UTC
MEAN_ELEMENT_THEORY = SGP/SGP4

EPOCH          = 2026-02-24T12:27:40.496544
MEAN_MOTION    = 15.50934033
ECCENTRICITY   = .00118265
INCLINATION    = 51.6307
RA_OF_ASC_NODE = 137.2112
ARG_OF_PERICENTER = 138.3350
MEAN_ANOMALY   = 221.8542

EPHEMERIS_TYPE = 0
CLASSIFICATION_TYPE = U
NORAD_CAT_ID   = 67685
ELEMENT_SET_NO = 999
REV_AT_EPOCH   = 274
BSTAR          = .68366115E-3
MEAN_MOTION_DOT = .40179E-3
MEAN_MOTION_DDOT = 0

