COSMOS 2600             
1 67674U 26023A   26055.56622473  .00091105  00000+0  41379-3 0  9998
2 67674  96.6461 131.6210 0001362  49.8071 310.3320 15.83635302  2975
2026-023B               
1 67675U 26023B   26055.84094241  .00009717  00000+0  41801-3 0  9994
2 67675  96.6378 130.2782 0018581 175.9166 184.2227 15.22644526  2907
2026-023C               
1 67676U 26023C   26055.84011185  .00011412  00000+0  48883-3 0  9993
2 67676  96.6414 130.2962 0019737 166.1080 194.0706 15.22730943  3068
2026-023D               
1 67677U 26023D   26055.84172071  .00009784  00000+0  42150-3 0  9996
2 67677  96.6444 130.2825 0019878 171.0618 189.0979 15.22569372  2890
2026-023E               
1 67678U 26023E   26055.84044189  .00011767  00000+0  50425-3 0  9993
2 67678  96.6338 130.2732 0019702 170.5128 189.6487 15.22709297  2898
2026-023F               
1 67679U 26023F   26055.83870189  .00013656  00000+0  58151-3 0  9993
2 67679  96.6345 132.7719 0021608 165.5262 194.6600 15.22856556  2883
2026-023G               
1 67680U 26023G   26055.83918034  .00012729  00000+0  54248-3 0  9990
2 67680  96.6272 132.7616 0023167 162.0919 198.1141 15.22809709  2880
2026-023H               
1 67681U 26023H   26055.83905190  .00010112  00000+0  43197-3 0  9995
2 67681  96.6417 132.7782 0023214 161.4347 198.7744 15.22780459  2882
2026-023J               
1 67682U 26023J   26055.83837188  .00008144  00000+0  34740-3 0  9993
2 67682  96.6376 132.7848 0023774 158.9076 201.3149 15.22872944  2882
ISS OBJECT XZ           
1 67683U 98067XZ  26055.65003951  .00033321  00000+0  57394-3 0  9999
2 67683  51.6307 136.5843 0009920 142.4717 217.6967 15.50703079  2760
GXIBA-1                 
1 67684U 98067YA  26055.51036411  .00066405  00000+0  10731-2 0  9994
2 67684  51.6305 137.1526 0011405 133.9104 226.2829 15.52162735  2741
CORAL                   
1 67685U 98067YB  26055.51921871  .00040179  00000+0  68366-3 0  9996
2 67685  51.6307 137.2112 0011826 138.3350 221.8542 15.50934033  2744
